{"type": "FeatureCollection", "features": [ {"type": "Feature", "properties": {"norad_id": 66479, "name": "STARLINK-35581", "group": "last-30-days", "lat": 35.166287981626596, "lon": 149.11912440609433, "alt_km": 410.43708486012383, "timestamp": "2025-12-07T18:50:15.513677+00:00", "meta": {"OBJECT_NAME": "STARLINK-35581", "OBJECT_ID": "2025-262Z", "EPOCH": "2025-12-07T06:00:04.999968", "MEAN_MOTION": 15.50585956, "ECCENTRICITY": 0.00014278, "INCLINATION": 43.0006, "RA_OF_ASC_NODE": 103.1307, "ARG_OF_PERICENTER": 259.6745, "MEAN_ANOMALY": 48.9288, "EPHEMERIS_TYPE": 0, "CLASSIFICATION_TYPE": "U", "NORAD_CAT_ID": 66479, "ELEMENT_SET_NO": 999, "REV_AT_EPOCH": 475, "BSTAR": -0.00082809014, "MEAN_MOTION_DOT": -0.00048632, "MEAN_MOTION_DDOT": 0}, "tle": {"line1": "1 66479U 25262Z   25341.25005787 -.00048632  00000+0 -82809-3 0  9992", "line2": "2 66479  43.0006 103.1307 0001427 259.6745  48.9288 15.50585956  4758"}}, "geometry": {"type": "Point", "coordinates": [149.11912440609433, 35.166287981626596]}}, {"type": "Feature", "properties": {"norad_id": 66480, "name": "STARLINK-35670", "group": "last-30-days", "lat": 37.56158180242373, "lon": 155.60182675214313, "alt_km": 410.1398146575566, "timestamp": "2025-12-07T18:50:15.513687+00:00", "meta": {"OBJECT_NAME": "STARLINK-35670", "OBJECT_ID": "2025-262AA", "EPOCH": "2025-12-07T06:00:04.999968", "MEAN_MOTION": 15.50600423, "ECCENTRICITY": 0.00014145, "INCLINATION": 43.0007, "RA_OF_ASC_NODE": 103.116, "ARG_OF_PERICENTER": 258.3335, "MEAN_ANOMALY": 56.0179, "EPHEMERIS_TYPE": 0, "CLASSIFICATION_TYPE": "U", "NORAD_CAT_ID": 66480, "ELEMENT_SET_NO": 999, "REV_AT_EPOCH": 475, "BSTAR": -0.0013027882, "MEAN_MOTION_DOT": -0.00076089, "MEAN_MOTION_DDOT": 0}, "tle": {"line1": "1 66480U 25262AA  25341.25005787 -.00076089  00000+0 -13028-2 0  9997", "line2": "2 66480  43.0007 103.1160 0001414 258.3335  56.0179 15.50600423  4751"}}, "geometry": {"type": "Point", "coordinates": [155.60182675214313, 37.56158180242373]}}, {"type": "Feature", "properties": {"norad_id": 66481, "name": "STARLINK-35698", "group": "last-30-days", "lat": 38.28167836630535, "lon": 157.86120164770713, "alt_km": 410.08967446486076, "timestamp": "2025-12-07T18:50:15.513698+00:00", "meta": {"OBJECT_NAME": "STARLINK-35698", "OBJECT_ID": "2025-262AB", "EPOCH": "2025-12-07T06:00:04.999968", "MEAN_MOTION": 15.50594608, "ECCENTRICITY": 0.00015488, "INCLINATION": 43.0007, "RA_OF_ASC_NODE": 103.1105, "ARG_OF_PERICENTER": 261.2057, "MEAN_ANOMALY": 55.0689, "EPHEMERIS_TYPE": 0, "CLASSIFICATION_TYPE": "U", "NORAD_CAT_ID": 66481, "ELEMENT_SET_NO": 999, "REV_AT_EPOCH": 475, "BSTAR": -0.0011206291, "MEAN_MOTION_DOT": -0.00065572, "MEAN_MOTION_DDOT": 0}, "tle": {"line1": "1 66481U 25262AB  25341.25005787 -.00065572  00000+0 -11206-2 0  9999", "line2": "2 66481  43.0007 103.1105 0001548 261.2057  55.0689 15.50594608  4755"}}, "geometry": {"type": "Point", "coordinates": [157.86120164770713, 38.28167836630535]}}, {"type": "Feature", "properties": {"norad_id": 66482, "name": "STARLINK-35648", "group": "last-30-days", "lat": 38.963939440950654, "lon": 160.1892993727671, "alt_km": 409.85386613985156, "timestamp": "2025-12-07T18:50:15.513710+00:00", "meta": {"OBJECT_NAME": "STARLINK-35648", "OBJECT_ID": "2025-262AC", "EPOCH": "2025-12-07T06:00:04.999968", "MEAN_MOTION": 15.50507303, "ECCENTRICITY": 0.0001318, "INCLINATION": 43.0006, "RA_OF_ASC_NODE": 103.1058, "ARG_OF_PERICENTER": 256.7618, "MEAN_ANOMALY": 61.5421, "EPHEMERIS_TYPE": 0, "CLASSIFICATION_TYPE": "U", "NORAD_CAT_ID": 66482, "ELEMENT_SET_NO": 999, "REV_AT_EPOCH": 460, "BSTAR": 0.00028713869, "MEAN_MOTION_DOT": 0.00016496, "MEAN_MOTION_DDOT": 0}, "tle": {"line1": "1 66482U 25262AC  25341.25005787  .00016496  00000+0  28714-3 0  9992", "line2": "2 66482  43.0006 103.1058 0001318 256.7618  61.5421 15.50507303  4605"}}, "geometry": {"type": "Point", "coordinates": [160.1892993727671, 38.963939440950654]}}, {"type": "Feature", "properties": {"norad_id": 66483, "name": "STARLINK-35654", "group": "last-30-days", "lat": 39.58206391550547, "lon": 162.4933427347741, "alt_km": 409.7982039119488, "timestamp": "2025-12-07T18:50:15.513720+00:00", "meta": {"OBJECT_NAME": "STARLINK-35654", "OBJECT_ID": "2025-262AD", "EPOCH": "2025-12-07T06:00:04.999968", "MEAN_MOTION": 15.50588195, "ECCENTRICITY": 0.0001405, "INCLINATION": 43.0007, "RA_OF_ASC_NODE": 103.1004, "ARG_OF_PERICENTER": 260.5941, "MEAN_ANOMALY": 59.5154, "EPHEMERIS_TYPE": 0, "CLASSIFICATION_TYPE": "U", "NORAD_CAT_ID": 66483, "ELEMENT_SET_NO": 999, "REV_AT_EPOCH": 475, "BSTAR": -0.00092539006, "MEAN_MOTION_DOT": -0.00054272, "MEAN_MOTION_DDOT": 0}, "tle": {"line1": "1 66483U 25262AD  25341.25005787 -.00054272  00000+0 -92539-3 0  9995", "line2": "2 66483  43.0007 103.1004 0001405 260.5941  59.5154 15.50588195  4751"}}, "geometry": {"type": "Point", "coordinates": [162.4933427347741, 39.58206391550547]}}, {"type": "Feature", "properties": {"norad_id": 66484, "name": "STARLINK-35371", "group": "last-30-days", "lat": 40.16101624684262, "lon": 164.87244398388881, "alt_km": 409.8033126884711, "timestamp": "2025-12-07T18:50:15.513730+00:00", "meta": {"OBJECT_NAME": "STARLINK-35371", "OBJECT_ID": "2025-262AE", "EPOCH": "2025-12-07T06:00:04.999968", "MEAN_MOTION": 15.50587552, "ECCENTRICITY": 0.0001543, "INCLINATION": 43.0005, "RA_OF_ASC_NODE": 103.0968, "ARG_OF_PERICENTER": 259.9284, "MEAN_ANOMALY": 62.0955, "EPHEMERIS_TYPE": 0, "CLASSIFICATION_TYPE": "U", "NORAD_CAT_ID": 66484, "ELEMENT_SET_NO": 999, "REV_AT_EPOCH": 475, "BSTAR": -0.00088055094, "MEAN_MOTION_DOT": -0.00051675, "MEAN_MOTION_DDOT": 0}, "tle": {"line1": "1 66484U 25262AE  25341.25005787 -.00051675  00000+0 -88055-3 0  9998", "line2": "2 66484  43.0005 103.0968 0001543 259.9284  62.0955 15.50587552  4757"}}, "geometry": {"type": "Point", "coordinates": [164.87244398388881, 40.16101624684262]}}, {"type": "Feature", "properties": {"norad_id": 66485, "name": "STARLINK-34774", "group": "last-30-days", "lat": -32.0327052782569, "lon": 111.97419276893415, "alt_km": 410.98059665531855, "timestamp": "2025-12-07T18:50:15.513740+00:00", "meta": {"OBJECT_NAME": "STARLINK-34774", "OBJECT_ID": "2025-263A", "EPOCH": "2025-12-07T06:00:04.999968", "MEAN_MOTION": 15.55001839, "ECCENTRICITY": 0.00012745, "INCLINATION": 43.0001, "RA_OF_ASC_NODE": 157.2951, "ARG_OF_PERICENTER": 266.3758, "MEAN_ANOMALY": 287.2725, "EPHEMERIS_TYPE": 0, "CLASSIFICATION_TYPE": "U", "NORAD_CAT_ID": 66485, "ELEMENT_SET_NO": 999, "REV_AT_EPOCH": 475, "BSTAR": -0.03403132, "MEAN_MOTION_DOT": -0.02085701, "MEAN_MOTION_DDOT": 0}, "tle": {"line1": "1 66485U 25263A   25341.25005787 -.02085701  00000+0 -34031-1 0  9992", "line2": "2 66485  43.0001 157.2951 0001274 266.3758 287.2725 15.55001839  4756"}}, "geometry": {"type": "Point", "coordinates": [111.97419276893415, -32.0327052782569]}}, {"type": "Feature", "properties": {"norad_id": 66486, "name": "STARLINK-34844", "group": "last-30-days", "lat": -31.050630635701644, "lon": 113.89763472943251, "alt_km": 410.86468285020874, "timestamp": "2025-12-07T18:50:15.513750+00:00", "meta": {"OBJECT_NAME": "STARLINK-34844", "OBJECT_ID": "2025-263B", "EPOCH": "2025-12-07T06:00:04.999968", "MEAN_MOTION": 15.54990101, "ECCENTRICITY": 0.00012715, "INCLINATION": 43.0002, "RA_OF_ASC_NODE": 157.2894, "ARG_OF_PERICENTER": 270.9634, "MEAN_ANOMALY": 284.6102, "EPHEMERIS_TYPE": 0, "CLASSIFICATION_TYPE": "U", "NORAD_CAT_ID": 66486, "ELEMENT_SET_NO": 999, "REV_AT_EPOCH": 470, "BSTAR": -0.033810534, "MEAN_MOTION_DOT": -0.02072837, "MEAN_MOTION_DDOT": 0}, "tle": {"line1": "1 66486U 25263B   25341.25005787 -.02072837  00000+0 -33811-1 0  9994", "line2": "2 66486  43.0002 157.2894 0001271 270.9634 284.6102 15.54990101  4708"}}, "geometry": {"type": "Point", "coordinates": [113.89763472943251, -31.050630635701644]}}, {"type": "Feature", "properties": {"norad_id": 66487, "name": "STARLINK-34733", "group": "last-30-days", "lat": -30.040452901963, "lon": 115.78285204876651, "alt_km": 410.847370465578, "timestamp": "2025-12-07T18:50:15.513761+00:00", "meta": {"OBJECT_NAME": "STARLINK-34733", "OBJECT_ID": "2025-263C", "EPOCH": "2025-12-07T06:00:04.999968", "MEAN_MOTION": 15.55004931, "ECCENTRICITY": 0.00012752, "INCLINATION": 43.0003, "RA_OF_ASC_NODE": 157.2855, "ARG_OF_PERICENTER": 269.5161, "MEAN_ANOMALY": 287.9618, "EPHEMERIS_TYPE": 0, "CLASSIFICATION_TYPE": "U", "NORAD_CAT_ID": 66487, "ELEMENT_SET_NO": 999, "REV_AT_EPOCH": 475, "BSTAR": -0.034041822, "MEAN_MOTION_DOT": -0.02086487, "MEAN_MOTION_DDOT": 0}, "tle": {"line1": "1 66487U 25263C   25341.25005787 -.02086487  00000+0 -34042-1 0  9998", "line2": "2 66487  43.0003 157.2855 0001275 269.5161 287.9618 15.55004931  4751"}}, "geometry": {"type": "Point", "coordinates": [115.78285204876651, -30.040452901963]}}, {"type": "Feature", "properties": {"norad_id": 66488, "name": "STARLINK-35515", "group": "last-30-days", "lat": -29.003160592155734, "lon": 117.62913934112125, "alt_km": 410.8912182588283, "timestamp": "2025-12-07T18:50:15.513773+00:00", "meta": {"OBJECT_NAME": "STARLINK-35515", "OBJECT_ID": "2025-263D", "EPOCH": "2025-12-07T06:00:04.999968", "MEAN_MOTION": 15.55003956, "ECCENTRICITY": 0.00012468, "INCLINATION": 43.0004, "RA_OF_ASC_NODE": 157.2801, "ARG_OF_PERICENTER": 265.5014, "MEAN_ANOMALY": 293.8957, "EPHEMERIS_TYPE": 0, "CLASSIFICATION_TYPE": "U", "NORAD_CAT_ID": 66488, "ELEMENT_SET_NO": 999, "REV_AT_EPOCH": 475, "BSTAR": -0.034048301, "MEAN_MOTION_DOT": -0.02086755, "MEAN_MOTION_DDOT": 0}, "tle": {"line1": "1 66488U 25263D   25341.25005787 -.02086755  00000+0 -34048-1 0  9993", "line2": "2 66488  43.0004 157.2801 0001246 265.5014 293.8957 15.55003956  4753"}}, "geometry": {"type": "Point", "coordinates": [117.62913934112125, -29.003160592155734]}}]}